[{"OBJECT_NAME":"GAOFEN-1","OBJECT_ID":"2013-018A","EPOCH":"2026-03-09T23:41:10.925664","MEAN_MOTION":14.76548234,"ECCENTRICITY":0.00163762,"INCLINATION":97.917,"RA_OF_ASC_NODE":143.0376,"ARG_OF_PERICENTER":223.3024,"MEAN_ANOMALY":136.69,"EPHEMERIS_TYPE":0,"CLASSIFICATION_TYPE":"U","NORAD_CAT_ID":39150,"ELEMENT_SET_NO":999,"REV_AT_EPOCH":69360,"BSTAR":0.00016125455,"MEAN_MOTION_DOT":1.076e-5,"MEAN_MOTION_DDOT":0},{"OBJECT_NAME":"COSMOS 1508","OBJECT_ID":"1983-111A","EPOCH":"2026-03-09T22:22:21.745632","MEAN_MOTION":14.06848646,"ECCENTRICITY":0.0674497,"INCLINATION":82.894,"RA_OF_ASC_NODE":328.7406,"ARG_OF_PERICENTER":35.1384,"MEAN_ANOMALY":329.2394,"EPHEMERIS_TYPE":0,"CLASSIFICATION_TYPE":"U","NORAD_CAT_ID":14483,"ELEMENT_SET_NO":999,"REV_AT_EPOCH":10737,"BSTAR":0.00039602262,"MEAN_MOTION_DOT":6.193e-5,"MEAN_MOTION_DDOT":0}]
